{
    "links": {
        "self": "http://www.neowsapp.com/rest/v1/neo/54092466?api_key=iIulBulltgU6a56xZRHN4H3l9WmuAYTsLGpBGhQ2"
    },
    "id": "54092466",
    "neo_reference_id": "54092466",
    "name": "(2020 WS2)",
    "designation": "2020 WS2",
    "nasa_jpl_url": "http://ssd.jpl.nasa.gov/sbdb.cgi?sstr=54092466",
    "absolute_magnitude_h": 24.592,
    "estimated_diameter": {
        "kilometers": {
            "estimated_diameter_min": 0.0320741368,
            "estimated_diameter_max": 0.0717199501
        },
        "meters": {
            "estimated_diameter_min": 32.074136757,
            "estimated_diameter_max": 71.7199501083
        },
        "miles": {
            "estimated_diameter_min": 0.0199299384,
            "estimated_diameter_max": 0.0445646971
        },
        "feet": {
            "estimated_diameter_min": 105.2301108378,
            "estimated_diameter_max": 235.3016811132
        }
    },
    "is_potentially_hazardous_asteroid": false,
    "close_approach_data": [
        {
            "close_approach_date": "2020-12-04",
            "close_approach_date_full": "2020-Dec-04 06:57",
            "epoch_date_close_approach": 1607065020000,
            "relative_velocity": {
                "kilometers_per_second": "10.8599592832",
                "kilometers_per_hour": "39095.8534194584",
                "miles_per_hour": "24292.6429205518"
            },
            "miss_distance": {
                "astronomical": "0.0310753586",
                "lunar": "12.0883144954",
                "kilometers": "4648807.456046182",
                "miles": "2888635.0054020316"
            },
            "orbiting_body": "Earth"
        }
    ],
    "orbital_data": {
        "orbit_id": "10",
        "orbit_determination_date": "2020-12-06 05:25:18",
        "first_observation_date": "2020-11-20",
        "last_observation_date": "2020-12-06",
        "data_arc_in_days": 16,
        "observations_used": 44,
        "orbit_uncertainty": "8",
        "minimum_orbit_intersection": ".0139606",
        "jupiter_tisserand_invariant": "2.952",
        "epoch_osculation": "2459175.5",
        "eccentricity": ".6609420841388126",
        "semi_major_axis": "2.809126995754945",
        "inclination": "4.4965451736412",
        "ascending_node_longitude": "89.11541195830905",
        "orbital_period": "1719.711070024117",
        "perihelion_distance": ".9524567445700702",
        "perihelion_argument": "11.58312533203348",
        "aphelion_distance": "4.66579724693982",
        "perihelion_time": "2459208.373469495931",
        "mean_anomaly": "353.1183503875629",
        "mean_motion": ".2093374906256499",
        "equinox": "J2000",
        "orbit_class": {
            "orbit_class_type": "APO",
            "orbit_class_description": "Near-Earth asteroid orbits which cross the Earth’s orbit similar to that of 1862 Apollo",
            "orbit_class_range": "a (semi-major axis) > 1.0 AU; q (perihelion) < 1.017 AU"
        }
    },
    "is_sentry_object": false
}